OBJECT C                
1 57582U 23117C   25224.37820609  .00007544  00000+0  28870-3 0  9998
2 57582  97.4414 299.0895 0007262 253.8733 106.1707 15.26835927111247
